STARLINK-3320           
1 50839U 22001AN  26053.71315523  .00001047  00000+0  83876-4 0  9990
2 50839  53.2161 246.3543 0001206  95.9710 264.1420 15.08836237227993
STARLINK-3295           
1 50840U 22001AP  26053.90819500  .00000299  00000+0  36858-4 0  9993
2 50840  53.2162 245.4770 0001447  93.9204 266.1954 15.08833051228021
STARLINK-3300           
1 50841U 22001AQ  26053.78675194  .00000324  00000+0  38420-4 0  9995
2 50841  53.2160 246.0233 0001419  95.4983 264.6171 15.08841172228017
STARLINK-3302           
1 50842U 22001AR  26053.90451386  .00000961  00000+0  78463-4 0  9993
2 50842  53.2168 245.4963 0001459  98.6302 261.4855 15.08838179228021
STARLINK-3325           
1 50843U 22001AS  26053.91668981  .00607788  00000+0  15592-1 0  9997
2 50843  53.2181 241.9235 0001054  67.2549 253.1203 15.36736039  5803
STARLINK-3326           
1 50844U 22001AT  26053.69475000  .00000670  00000+0  60176-4 0  9999
2 50844  53.2167 246.4386 0001641  78.3738 281.7438 15.08838182228007
STARLINK-3230           
1 50845U 22001AU  26053.73891651 -.00000898  00000+0 -38349-4 0  9990
2 50845  53.2164 246.2393 0001424  58.8960 301.2172 15.08830187228011
STARLINK-3308           
1 50846U 22001AV  26053.90084770  .00000680  00000+0  60808-4 0  9998
2 50846  53.2156 245.6279 0001295  89.1976 270.9164 15.08836122228039
STARLINK-3315           
1 50848U 22001AX  26053.68739086 -.00000053  00000+0  14766-4 0  9999
2 50848  53.2171 246.4708 0001427  92.2908 267.8248 15.08836498228002
STARLINK-3311           
1 50849U 22001AY  26053.69843600 -.00000108  00000+0  11297-4 0  9996
2 50849  53.2172 246.4218 0001437  92.0236 268.0921 15.08830622228007
STARLINK-3312           
1 50850U 22001AZ  26053.90083152 -.00000566  00000+0 -17450-4 0  9996
2 50850  53.2156 205.5089 0001624 101.9222 258.1952 15.08840969229130
STARLINK-3314           
1 50851U 22001BA  26053.80882046 -.00000042  00000+0  15451-4 0  9992
2 50851  53.2163 245.8480 0001664 100.0997 260.0183 15.08839383228027
ION SCV-004             
1 50993U 22002K   26053.70469553  .00006619  00000+0  23627-3 0  9991
2 50993  97.2993 113.5251 0008696  51.0660 309.1354 15.29159383227790
HYPSO-1                 
1 51053U 22002BX  26053.91504944  .00045738  00000+0  59183-3 0  9997
2 51053  97.2953 131.0370 0002027   3.0378 357.0891 15.58786448229044
ETV-A1                  
1 51060U 22002CE  26053.93615747  .00014144  00000+0  37967-3 0  9994
2 51060  97.3019 120.7068 0006268  50.6137 309.5662 15.38032878228267
BRO-5                   
1 51061U 22002CF  26053.92805030  .00014979  00000+0  34207-3 0  9990
2 51061  97.3115 126.9525 0005794  40.1443 320.0232 15.42944567228610
SHIYAN-13 (SY-13)       
1 51102U 22004A   26053.98758999  .00002649  00000+0  18033-3 0  9995
2 51102  98.4684  77.8027 0607346 165.8192 196.0924 14.19725812211082
STARLINK-3366           
1 51104U 22005A   26053.83551628  .00003200  00000+0  21904-3 0  9997
2 51104  53.2187 355.8068 0001393  92.1581 267.9571 15.08837727226630
STARLINK-3350           
1 51105U 22005B   26053.54479772 -.00000855  00000+0 -35632-4 0  9994
2 51105  53.2185 357.1040 0001209  88.2211 271.8920 15.08829220226592
STARLINK-3176           
1 51106U 22005C   26053.25775001 -.00000582  00000+0 -18470-4 0  9995
2 51106  53.2180 358.3992 0001269  92.2676 267.8462 15.08838775226549
STARLINK-3362           
1 51108U 22005E   26053.07742919  .00001605  00000+0  11894-3 0  9996
2 51108  53.2186 359.2065 0001343  78.1810 281.9333 15.08839896226521
STARLINK-3358           
1 51109U 22005F   26053.22830507  .00000588  00000+0  55007-4 0  9999
2 51109  53.2185 358.4817 0001385  88.8279 271.2871 15.08844060226315
STARLINK-3344           
1 51110U 22005G   26053.86126560  .00000861  00000+0  72165-4 0  9996
2 51110  53.2181 355.6668 0001358  86.8626 273.2522 15.08841843226647
STARLINK-3173           
1 51111U 22005H   26053.83918991 -.00001606  00000+0 -82828-4 0  9998
2 51111  53.2202 355.7934 0001240  75.6741 284.4389 15.08841236226633
