OBJECT_NAME,OBJECT_ID,OBJECT_TYPE,EPOCH,MEAN_MOTION,ECCENTRICITY,INCLINATION,RA_OF_ASC_NODE,ARG_OF_PERICENTER,MEAN_ANOMALY,EPHEMERIS_TYPE,CLASSIFICATION_TYPE,NORAD_CAT_ID,ELEMENT_SET_NO,REV_AT_EPOCH,BSTAR,MEAN_MOTION_DOT,MEAN_MOTION_DDOT,WEATHER,BRIGHTEST,EARTH_RESOURCES,NAVIGATION,SCIENTIFIC,MISCELLANEOUS,COMMUNICATION,active geosynchronous,constellations,active_geosynchronous
STARLINK-3320,2022-001AN,Sattelite,2026-02-22T17:06:56.611872,15.08836237,0.00012066,53.2161,246.3543,95.971,264.142,0,U,50839,999,22799,8.3875965e-05,1.047e-05,0.0,False,False,False,False,False,False,False,False,starlink,
STARLINK-3295,2022-001AP,Sattelite,2026-02-22T21:47:48.048000,15.08833051,0.00014478,53.2162,245.477,93.9204,266.1954,0,U,50840,999,22802,3.6857584e-05,2.99e-06,0.0,False,False,False,False,False,False,False,False,starlink,
STARLINK-3300,2022-001AQ,Sattelite,2026-02-22T18:52:55.367616,15.08841172,0.00014191,53.216,246.0233,95.4983,264.6171,0,U,50841,999,22801,3.8420421e-05,3.24e-06,0.0,False,False,False,False,False,False,False,False,starlink,
STARLINK-3302,2022-001AR,Sattelite,2026-02-22T21:42:29.997504,15.08838179,0.00014591,53.2168,245.4963,98.6302,261.4855,0,U,50842,999,22802,7.8463489e-05,9.61e-06,0.0,False,False,False,False,False,False,False,False,starlink,
STARLINK-3325,2022-001AS,Sattelite,2026-02-22T22:00:01.999584,15.36736039,0.00010544,53.2181,241.9235,67.2549,253.1203,0,U,50843,999,580,0.015591873,0.00607788,0.0,False,False,False,False,False,False,False,False,starlink,
STARLINK-3326,2022-001AT,Sattelite,2026-02-22T16:40:26.400000,15.08838182,0.00016412,53.2167,246.4386,78.3738,281.7438,0,U,50844,999,22800,6.0175967e-05,6.7e-06,0.0,False,False,False,False,False,False,False,False,starlink,
STARLINK-3230,2022-001AU,Sattelite,2026-02-22T17:44:02.386464,15.08830187,0.00014248,53.2164,246.2393,58.896,301.2172,0,U,50845,999,22801,-3.834902e-05,-8.98e-06,0.0,False,False,False,False,False,False,False,False,starlink,
STARLINK-3308,2022-001AV,Sattelite,2026-02-22T21:37:13.241280,15.08836122,0.00012952,53.2156,245.6279,89.1976,270.9164,0,U,50846,999,22803,6.0807965e-05,6.8e-06,0.0,False,False,False,False,False,False,False,False,starlink,
STARLINK-3315,2022-001AX,Sattelite,2026-02-22T16:29:50.570304,15.08836498,0.0001427,53.2171,246.4708,92.2908,267.8248,0,U,50848,999,22800,1.4765878e-05,-5.3e-07,0.0,False,False,False,False,False,False,False,False,starlink,
STARLINK-3311,2022-001AY,Sattelite,2026-02-22T16:45:44.870400,15.08830622,0.00014378,53.2172,246.4218,92.0236,268.0921,0,U,50849,999,22800,1.1297116e-05,-1.08e-06,0.0,False,False,False,False,False,False,False,False,starlink,
STARLINK-3312,2022-001AZ,Sattelite,2026-02-22T21:37:11.843328,15.08840969,0.00016242,53.2156,205.5089,101.9222,258.1952,0,U,50850,999,22913,-1.7449976e-05,-5.66e-06,0.0,False,False,False,False,False,False,False,False,starlink,
STARLINK-3314,2022-001BA,Sattelite,2026-02-22T19:24:42.087744,15.08839383,0.00016648,53.2163,245.848,100.0997,260.0183,0,U,50851,999,22802,1.5450636e-05,-4.2e-07,0.0,False,False,False,False,False,False,False,False,starlink,
ION SCV-004,2022-002K,Sattelite,2026-02-22T16:54:45.693792,15.29159383,0.00086961,97.2993,113.5251,51.066,309.1354,0,U,50993,999,22779,0.00023627174,6.619e-05,0.0,False,False,False,False,False,False,False,False,satnogs,
HYPSO-1,2022-002BX,Sattelite,2026-02-22T21:57:40.271616,15.58786448,0.00020278,97.2953,131.037,3.0378,357.0891,0,U,51053,999,22904,0.00059182932,0.00045738,0.0,False,False,False,False,False,False,False,False,False,
ETV-A1,2022-002CE,Sattelite,2026-02-22T22:28:04.005408,15.38032878,0.0006268,97.3019,120.7068,50.6137,309.5662,0,U,51060,999,22826,0.00037967038,0.00014144,0.0,False,False,False,False,False,False,False,False,satnogs,
BRO-5,2022-002CF,Sattelite,2026-02-22T22:16:23.545920,15.42944567,0.00057941,97.3115,126.9525,40.1443,320.0232,0,U,51061,999,22861,0.00034207001,0.00014979,0.0,False,False,False,False,False,False,False,False,satnogs,
SHIYAN-13 (SY-13),2022-004A,Sattelite,2026-02-22T23:42:07.775136,14.19725812,0.06073463,98.4684,77.8027,165.8192,196.0924,0,U,51102,999,21108,0.00018033262,2.649e-05,0.0,False,False,False,False,False,False,False,False,False,
STARLINK-3366,2022-005A,Sattelite,2026-02-22T20:03:08.606592,15.08837727,0.00013939,53.2187,355.8068,92.1581,267.9571,0,U,51104,999,22663,0.00021904219,3.2e-05,0.0,False,False,False,False,False,False,False,False,starlink,
STARLINK-3350,2022-005B,Sattelite,2026-02-22T13:04:30.523008,15.0882922,0.0001209,53.2185,357.104,88.2211,271.892,0,U,51105,999,22659,-3.5632485e-05,-8.55e-06,0.0,False,False,False,False,False,False,False,False,starlink,
STARLINK-3176,2022-005C,Sattelite,2026-02-22T06:11:09.600864,15.08838775,0.00012695,53.218,358.3992,92.2676,267.8462,0,U,51106,999,22654,-1.8469907e-05,-5.82e-06,0.0,False,False,False,False,False,False,False,False,starlink,
STARLINK-3362,2022-005E,Sattelite,2026-02-22T01:51:29.882016,15.08839896,0.00013434,53.2186,359.2065,78.181,281.9333,0,U,51108,999,22652,0.00011893526,1.605e-05,0.0,False,False,False,False,False,False,False,False,starlink,
STARLINK-3358,2022-005F,Sattelite,2026-02-22T05:28:45.558048,15.0884406,0.00013851,53.2185,358.4817,88.8279,271.2871,0,U,51109,999,22631,5.5006845e-05,5.88e-06,0.0,False,False,False,False,False,False,False,False,starlink,
STARLINK-3344,2022-005G,Sattelite,2026-02-22T20:40:13.347840,15.08841843,0.00013588,53.2181,355.6668,86.8626,273.2522,0,U,51110,999,22664,7.2165416e-05,8.61e-06,0.0,False,False,False,False,False,False,False,False,starlink,
STARLINK-3173,2022-005H,Sattelite,2026-02-22T20:08:26.008224,15.08841236,0.00012402,53.2202,355.7934,75.6741,284.4389,0,U,51111,999,22663,-8.2828037e-05,-1.606e-05,0.0,False,False,False,False,False,False,False,False,starlink,
